{
 "type": "FeatureCollection",
 "meta": {
  "built_on": "2026-09-26",
  "reach_m": 2000,
  "population_source": "Meta High Resolution Settlement Layer v1.5.2 (CC BY 4.0)"
 },
 "features": [
  {
   "type": "Feature",
   "geometry": {
    "type": "Polygon",
    "coordinates": [
     [
      [
       73.82165,
       18.46105
      ],
      [
       73.84096,
       18.46464
      ],
      [
       73.84467,
       18.45339
      ],
      [
       73.83773,
       18.4385
      ],
      [
       73.83522,
       18.43781
      ],
      [
       73.83153,
       18.43744
      ],
      [
       73.82967,
       18.43751
      ],
      [
       73.82602,
       18.43818
      ],
      [
       73.82259,
       18.43952
      ],
      [
       73.82099,
       18.44042
      ],
      [
       73.8181,
       18.44265
      ],
      [
       73.81625,
       18.44471
      ],
      [
       73.81698,
       18.45869
      ],
      [
       73.82165,
       18.46105
      ]
     ]
    ]
   },
   "properties": {
    "name": "Ambegaon Budruk",
    "population": 57464,
    "area_km2": 6.91,
    "label_point": [
     73.82923,
     18.45004
    ]
   }
  },
  {
   "type": "Feature",
   "geometry": {
    "type": "Polygon",
    "coordinates": [
     [
      [
       73.80818,
       18.47854
      ],
      [
       73.82691,
       18.47465
      ],
      [
       73.82165,
       18.46105
      ],
      [
       73.81698,
       18.45869
      ],
      [
       73.80494,
       18.47332
      ],
      [
       73.80818,
       18.47854
      ]
     ]
    ]
   },
   "properties": {
    "name": "Anand Nagar",
    "population": 15471,
    "area_km2": 2.92,
    "label_point": [
     73.8172,
     18.46958
    ]
   }
  },
  {
   "type": "Feature",
   "geometry": {
    "type": "Polygon",
    "coordinates": [
     [
      [
       73.7942,
       18.57325
      ],
      [
       73.79829,
       18.5833
      ],
      [
       73.8018,
       18.58359
      ],
      [
       73.81478,
       18.58396
      ],
      [
       73.81662,
       18.58392
      ],
      [
       73.82024,
       18.58335
      ],
      [
       73.82367,
       18.58213
      ],
      [
       73.8268,
       18.58029
      ],
      [
       73.82949,
       18.57791
      ],
      [
       73.83166,
       18.57509
      ],
      [
       73.83321,
       18.57192
      ],
      [
       73.83409,
       18.56852
      ],
      [
       73.83427,
       18.56678
      ],
      [
       73.8341,
       18.56328
      ],
      [
       73.83322,
       18.55989
      ],
      [
       73.83167,
       18.55671
      ],
      [
       73.82411,
       18.54449
      ],
      [
       73.81629,
       18.53724
      ],
      [
       73.81079,
       18.5351
      ],
      [
       73.7933,
       18.55452
      ],
      [
       73.7942,
       18.57325
      ]
     ]
    ]
   },
   "properties": {
    "name": "Aundh",
    "population": 117795,
    "area_km2": 17.3,
    "label_point": [
     73.81371,
     18.56492
    ]
   }
  },
  {
   "type": "Feature",
   "geometry": {
    "type": "Polygon",
    "coordinates": [
     [
      [
       73.84304,
       18.47904
      ],
      [
       73.8741,
       18.47893
      ],
      [
       73.87581,
       18.47525
      ],
      [
       73.87627,
       18.47353
      ],
      [
       73.87666,
       18.47001
      ],
      [
       73.87631,
       18.46648
      ],
      [
       73.87587,
       18.46476
      ],
      [
       73.87447,
       18.46148
      ],
      [
       73.87353,
       18.45995
      ],
      [
       73.87288,
       18.4591
      ],
      [
       73.8431,
       18.47151
      ],
      [
       73.84304,
       18.47904
      ]
     ]
    ]
   },
   "properties": {
    "name": "Balaji Nagar",
    "population": 183472,
    "area_km2": 5.4,
    "label_point": [
     73.86761,
     18.47051
    ]
   }
  },
  {
   "type": "Feature",
   "geometry": {
    "type": "Polygon",
    "coordinates": [
     [
      [
       73.78749,
       18.59503
      ],
      [
       73.79066,
       18.59305
      ],
      [
       73.79327,
       18.59058
      ],
      [
       73.79534,
       18.58769
      ],
      [
       73.79678,
       18.58447
      ],
      [
       73.79749,
       18.58134
      ],
      [
       73.7942,
       18.57325
      ],
      [
       73.75866,
       18.55564
      ],
      [
       73.75538,
       18.55997
      ],
      [
       73.75372,
       18.57846
      ],
      [
       73.78749,
       18.59503
      ]
     ]
    ]
   },
   "properties": {
    "name": "Balewadi",
    "population": 35024,
    "area_km2": 11.52,
    "label_point": [
     73.76728,
     18.57253
    ]
   }
  },
  {
   "type": "Feature",
   "geometry": {
    "type": "Polygon",
    "coordinates": [
     [
      [
       73.75589,
       18.55427
      ],
      [
       73.7942,
       18.57325
      ],
      [
       73.7933,
       18.55452
      ],
      [
       73.7593,
       18.54293
      ],
      [
       73.75686,
       18.54496
      ],
      [
       73.75473,
       18.54754
      ],
      [
       73.75589,
       18.55427
      ]
     ]
    ]
   },
   "properties": {
    "name": "Baner",
    "population": 26765,
    "area_km2": 6.8,
    "label_point": [
     73.78534,
     18.56011
    ]
   }
  },
  {
   "type": "Feature",
   "geometry": {
    "type": "Polygon",
    "coordinates": [
     [
      [
       73.7966,
       18.50783
      ],
      [
       73.77159,
       18.49536
      ],
      [
       73.76882,
       18.49743
      ],
      [
       73.757,
       18.50814
      ],
      [
       73.75574,
       18.5094
      ],
      [
       73.75363,
       18.51222
      ],
      [
       73.75279,
       18.51377
      ],
      [
       73.75161,
       18.51705
      ],
      [
       73.75111,
       18.52049
      ],
      [
       73.75131,
       18.52396
      ],
      [
       73.7522,
       18.52733
      ],
      [
       73.75289,
       18.52893
      ],
      [
       73.75475,
       18.53192
      ],
      [
       73.75717,
       18.53451
      ],
      [
       73.76007,
       18.53661
      ],
      [
       73.76199,
       18.53759
      ],
      [
       73.79827,
       18.52536
      ],
      [
       73.79975,
       18.52226
      ],
      [
       73.80076,
       18.51844
      ],
      [
       73.7966,
       18.50783
      ]
     ]
    ]
   },
   "properties": {
    "name": "Bavdhan",
    "population": 25848,
    "area_km2": 15.98,
    "label_point": [
     73.77427,
     18.51565
    ]
   }
  },
  {
   "type": "Feature",
   "geometry": {
    "type": "Polygon",
    "coordinates": [
     [
      [
       73.86334,
       18.53367
      ],
      [
       73.86586,
       18.53584
      ],
      [
       73.86741,
       18.53683
      ],
      [
       73.86905,
       18.53767
      ],
      [
       73.87204,
       18.53872
      ],
      [
       73.89857,
       18.51695
      ],
      [
       73.89914,
       18.51304
      ],
      [
       73.89895,
       18.50924
      ],
      [
       73.89005,
       18.50305
      ],
      [
       73.86641,
       18.51168
      ],
      [
       73.86404,
       18.51698
      ],
      [
       73.86334,
       18.53367
      ]
     ]
    ]
   },
   "properties": {
    "name": "Camp",
    "population": 298986,
    "area_km2": 9.16,
    "label_point": [
     73.87587,
     18.52047
    ]
   }
  },
  {
   "type": "Feature",
   "geometry": {
    "type": "Polygon",
    "coordinates": [
     [
      [
       73.9151,
       18.65709
      ],
      [
       73.9144,
       18.65361
      ],
      [
       73.913,
       18.65033
      ],
      [
       73.91095,
       18.64737
      ],
      [
       73.90834,
       18.64485
      ],
      [
       73.90526,
       18.64286
      ],
      [
       73.90184,
       18.64149
      ],
      [
       73.8982,
       18.64078
      ],
      [
       73.89448,
       18.64075
      ],
      [
       73.89083,
       18.64142
      ],
      [
       73.88739,
       18.64276
      ],
      [
       73.88428,
       18.64471
      ],
      [
       73.88164,
       18.6472
      ],
      [
       73.87956,
       18.65013
      ],
      [
       73.87811,
       18.6534
      ],
      [
       73.87736,
       18.65687
      ],
      [
       73.87734,
       18.66041
      ],
      [
       73.87804,
       18.66389
      ],
      [
       73.87944,
       18.66717
      ],
      [
       73.88149,
       18.67013
      ],
      [
       73.8841,
       18.67265
      ],
      [
       73.88718,
       18.67464
      ],
      [
       73.89061,
       18.67601
      ],
      [
       73.89425,
       18.67672
      ],
      [
       73.89796,
       18.67675
      ],
      [
       73.90161,
       18.67608
      ],
      [
       73.90506,
       18.67474
      ],
      [
       73.90816,
       18.67279
      ],
      [
       73.91081,
       18.6703
      ],
      [
       73.91289,
       18.66737
      ],
      [
       73.91433,
       18.6641
      ],
      [
       73.91508,
       18.66063
      ],
      [
       73.9151,
       18.65709
      ]
     ]
    ]
   },
   "properties": {
    "name": "Charholi",
    "population": 30398,
    "area_km2": 12.55,
    "label_point": [
     73.89622,
     18.65875
    ]
   }
  },
  {
   "type": "Feature",
   "geometry": {
    "type": "Polygon",
    "coordinates": [
     [
      [
       73.76379,
       18.62898
      ],
      [
       73.76433,
       18.63195
      ],
      [
       73.79176,
       18.65161
      ],
      [
       73.79372,
       18.6511
      ],
      [
       73.79707,
       18.64968
      ],
      [
       73.80008,
       18.64767
      ],
      [
       73.80245,
       18.64532
      ],
      [
       73.7919,
       18.61158
      ],
      [
       73.79081,
       18.61102
      ],
      [
       73.78909,
       18.61034
      ],
      [
       73.7855,
       18.60946
      ],
      [
       73.78179,
       18.60928
      ],
      [
       73.77872,
       18.60967
      ],
      [
       73.76835,
       18.61762
      ],
      [
       73.76379,
       18.62898
      ]
     ]
    ]
   },
   "properties": {
    "name": "Chinchwad",
    "population": 83099,
    "area_km2": 11.81,
    "label_point": [
     73.78099,
     18.62615
    ]
   }
  },
  {
   "type": "Feature",
   "geometry": {
    "type": "Polygon",
    "coordinates": [
     [
      [
       73.82755,
       18.50037
      ],
      [
       73.84069,
       18.50365
      ],
      [
       73.8461,
       18.49992
      ],
      [
       73.84859,
       18.49617
      ],
      [
       73.84284,
       18.47933
      ],
      [
       73.83946,
       18.48027
      ],
      [
       73.82276,
       18.49205
      ],
      [
       73.82755,
       18.50037
      ]
     ]
    ]
   },
   "properties": {
    "name": "Dattawadi",
    "population": 31051,
    "area_km2": 4.47,
    "label_point": [
     73.83735,
     18.49324
    ]
   }
  },
  {
   "type": "Feature",
   "geometry": {
    "type": "Polygon",
    "coordinates": [
     [
      [
       73.84477,
       18.51436
      ],
      [
       73.84007,
       18.51073
      ],
      [
       73.83046,
       18.51978
      ],
      [
       73.85018,
       18.52589
      ],
      [
       73.84477,
       18.51436
      ]
     ]
    ]
   },
   "properties": {
    "name": "Deccan Gymkhana",
    "population": 47827,
    "area_km2": 1.59,
    "label_point": [
     73.84039,
     18.51751
    ]
   }
  },
  {
   "type": "Feature",
   "geometry": {
    "type": "Polygon",
    "coordinates": [
     [
      [
       73.8431,
       18.47151
      ],
      [
       73.87682,
       18.45747
      ],
      [
       73.87604,
       18.45495
      ],
      [
       73.84467,
       18.45339
      ],
      [
       73.84096,
       18.46464
      ],
      [
       73.8431,
       18.47151
      ]
     ]
    ]
   },
   "properties": {
    "name": "Dhankawadi",
    "population": 71634,
    "area_km2": 4.18,
    "label_point": [
     73.85011,
     18.46078
    ]
   }
  },
  {
   "type": "Feature",
   "geometry": {
    "type": "Polygon",
    "coordinates": [
     [
      [
       73.90722,
       18.57992
      ],
      [
       73.88763,
       18.56886
      ],
      [
       73.8862,
       18.5687
      ],
      [
       73.88376,
       18.57004
      ],
      [
       73.88231,
       18.57111
      ],
      [
       73.87975,
       18.57362
      ],
      [
       73.87775,
       18.57655
      ],
      [
       73.87638,
       18.57979
      ],
      [
       73.87569,
       18.58322
      ],
      [
       73.87561,
       18.58497
      ],
      [
       73.87691,
       18.59799
      ],
      [
       73.87766,
       18.60153
      ],
      [
       73.87914,
       18.60486
      ],
      [
       73.88129,
       18.60783
      ],
      [
       73.88258,
       18.60915
      ],
      [
       73.88556,
       18.61139
      ],
      [
       73.89277,
       18.61498
      ],
      [
       73.89626,
       18.61627
      ],
      [
       73.89801,
       18.61664
      ],
      [
       73.90722,
       18.57992
      ]
     ]
    ]
   },
   "properties": {
    "name": "Dhanori",
    "population": 59909,
    "area_km2": 12.17,
    "label_point": [
     73.89046,
     18.58673
    ]
   }
  },
  {
   "type": "Feature",
   "geometry": {
    "type": "Polygon",
    "coordinates": [
     [
      [
       73.81877,
       18.52348
      ],
      [
       73.83046,
       18.51978
      ],
      [
       73.84007,
       18.51073
      ],
      [
       73.84069,
       18.50365
      ],
      [
       73.82755,
       18.50037
      ],
      [
       73.81877,
       18.52348
      ]
     ]
    ]
   },
   "properties": {
    "name": "Erandwane",
    "population": 66536,
    "area_km2": 3.19,
    "label_point": [
     73.83209,
     18.50859
    ]
   }
  },
  {
   "type": "Feature",
   "geometry": {
    "type": "Polygon",
    "coordinates": [
     [
      [
       73.86641,
       18.51168
      ],
      [
       73.89005,
       18.50305
      ],
      [
       73.8805,
       18.48474
      ],
      [
       73.87805,
       18.48383
      ],
      [
       73.8761,
       18.48338
      ],
      [
       73.86187,
       18.4979
      ],
      [
       73.86641,
       18.51168
      ]
     ]
    ]
   },
   "properties": {
    "name": "Gultekadi",
    "population": 166834,
    "area_km2": 5.35,
    "label_point": [
     73.87591,
     18.49783
    ]
   }
  },
  {
   "type": "Feature",
   "geometry": {
    "type": "Polygon",
    "coordinates": [
     [
      [
       73.91358,
       18.50255
      ],
      [
       73.96627,
       18.51839
      ],
      [
       73.96946,
       18.51461
      ],
      [
       73.97044,
       18.51308
      ],
      [
       73.97177,
       18.51013
      ],
      [
       73.93334,
       18.47803
      ],
      [
       73.92573,
       18.47816
      ],
      [
       73.91827,
       18.4905
      ],
      [
       73.91358,
       18.50255
      ]
     ]
    ]
   },
   "properties": {
    "name": "Hadapsar",
    "population": 148826,
    "area_km2": 13.57,
    "label_point": [
     73.93194,
     18.49431
    ]
   }
  },
  {
   "type": "Feature",
   "geometry": {
    "type": "Polygon",
    "coordinates": [
     [
      [
       73.91905,
       18.467
      ],
      [
       73.92121,
       18.46904
      ],
      [
       73.9227,
       18.47011
      ],
      [
       73.92429,
       18.47103
      ],
      [
       73.92771,
       18.4724
      ],
      [
       73.93134,
       18.47312
      ],
      [
       73.9332,
       18.47321
      ],
      [
       73.93506,
       18.47314
      ],
      [
       73.9386,
       18.47249
      ],
      [
       73.95191,
       18.45848
      ],
      [
       73.95225,
       18.45525
      ],
      [
       73.95217,
       18.45347
      ],
      [
       73.95147,
       18.45
      ],
      [
       73.95007,
       18.44671
      ],
      [
       73.94802,
       18.44376
      ],
      [
       73.94541,
       18.44124
      ],
      [
       73.94393,
       18.44017
      ],
      [
       73.94234,
       18.43925
      ],
      [
       73.93892,
       18.43788
      ],
      [
       73.93528,
       18.43717
      ],
      [
       73.93342,
       18.43707
      ],
      [
       73.92973,
       18.43739
      ],
      [
       73.92745,
       18.43797
      ],
      [
       73.91905,
       18.467
      ]
     ]
    ]
   },
   "properties": {
    "name": "Handewadi",
    "population": 44988,
    "area_km2": 10.03,
    "label_point": [
     73.93766,
     18.45337
    ]
   }
  },
  {
   "type": "Feature",
   "geometry": {
    "type": "Polygon",
    "coordinates": [
     [
      [
       73.82276,
       18.49205
      ],
      [
       73.83946,
       18.48027
      ],
      [
       73.82691,
       18.47465
      ],
      [
       73.80818,
       18.47854
      ],
      [
       73.81165,
       18.48969
      ],
      [
       73.82276,
       18.49205
      ]
     ]
    ]
   },
   "properties": {
    "name": "Hingne Khurd",
    "population": 25847,
    "area_km2": 3.9,
    "label_point": [
     73.82104,
     18.48374
    ]
   }
  },
  {
   "type": "Feature",
   "geometry": {
    "type": "Polygon",
    "coordinates": [
     [
      [
       73.74006,
       18.5947
      ],
      [
       73.74402,
       18.58519
      ],
      [
       73.68403,
       18.55124
      ],
      [
       73.68074,
       18.55033
      ],
      [
       73.67711,
       18.54993
      ],
      [
       73.67348,
       18.5502
      ],
      [
       73.66996,
       18.55113
      ],
      [
       73.66669,
       18.55269
      ],
      [
       73.6638,
       18.55481
      ],
      [
       73.66139,
       18.55743
      ],
      [
       73.65955,
       18.56044
      ],
      [
       73.65887,
       18.56205
      ],
      [
       73.65801,
       18.56543
      ],
      [
       73.65784,
       18.56891
      ],
      [
       73.65837,
       18.57236
      ],
      [
       73.65959,
       18.57564
      ],
      [
       73.66044,
       18.57718
      ],
      [
       73.66259,
       18.57999
      ],
      [
       73.66387,
       18.58124
      ],
      [
       73.68425,
       18.59909
      ],
      [
       73.74006,
       18.5947
      ]
     ]
    ]
   },
   "properties": {
    "name": "Hinjewadi",
    "population": 23577,
    "area_km2": 30.27,
    "label_point": [
     73.69134,
     18.57848
    ]
   }
  },
  {
   "type": "Feature",
   "geometry": {
    "type": "Polygon",
    "coordinates": [
     [
      [
       73.92543,
       18.54613
      ],
      [
       73.92522,
       18.5426
      ],
      [
       73.92483,
       18.54083
      ],
      [
       73.92351,
       18.53746
      ],
      [
       73.92277,
       18.53618
      ],
      [
       73.918,
       18.53257
      ],
      [
       73.88044,
       18.55152
      ],
      [
       73.88106,
       18.55341
      ],
      [
       73.88279,
       18.55669
      ],
      [
       73.88598,
       18.5607
      ],
      [
       73.88867,
       18.56335
      ],
      [
       73.89021,
       18.56446
      ],
      [
       73.89272,
       18.56581
      ],
      [
       73.92543,
       18.54613
      ]
     ]
    ]
   },
   "properties": {
    "name": "Kalyani Nagar",
    "population": 223820,
    "area_km2": 8.5,
    "label_point": [
     73.89328,
     18.55502
    ]
   }
  },
  {
   "type": "Feature",
   "geometry": {
    "type": "Polygon",
    "coordinates": [
     [
      [
       73.84467,
       18.45339
      ],
      [
       73.87161,
       18.45473
      ],
      [
       73.87785,
       18.44075
      ],
      [
       73.87863,
       18.43729
      ],
      [
       73.87875,
       18.43552
      ],
      [
       73.87844,
       18.43199
      ],
      [
       73.87742,
       18.42858
      ],
      [
       73.87572,
       18.42543
      ],
      [
       73.87464,
       18.42399
      ],
      [
       73.87206,
       18.42144
      ],
      [
       73.86901,
       18.41943
      ],
      [
       73.8656,
       18.41802
      ],
      [
       73.86197,
       18.41728
      ],
      [
       73.85826,
       18.41722
      ],
      [
       73.85461,
       18.41786
      ],
      [
       73.85116,
       18.41916
      ],
      [
       73.84804,
       18.42108
      ],
      [
       73.84537,
       18.42355
      ],
      [
       73.84424,
       18.42496
      ],
      [
       73.84244,
       18.42805
      ],
      [
       73.83771,
       18.43847
      ],
      [
       73.84467,
       18.45339
      ]
     ]
    ]
   },
   "properties": {
    "name": "Katraj",
    "population": 83622,
    "area_km2": 14.05,
    "label_point": [
     73.85964,
     18.43564
    ]
   }
  },
  {
   "type": "Feature",
   "geometry": {
    "type": "Polygon",
    "coordinates": [
     [
      [
       73.92799,
       18.54014
      ],
      [
       73.92696,
       18.54521
      ],
      [
       73.93667,
       18.57684
      ],
      [
       73.93911,
       18.57782
      ],
      [
       73.94289,
       18.57861
      ],
      [
       73.94676,
       18.57866
      ],
      [
       73.95056,
       18.57795
      ],
      [
       73.96042,
       18.5751
      ],
      [
       73.96382,
       18.57376
      ],
      [
       73.96689,
       18.57182
      ],
      [
       73.96951,
       18.56934
      ],
      [
       73.97061,
       18.56793
      ],
      [
       73.97237,
       18.56485
      ],
      [
       73.97347,
       18.56149
      ],
      [
       73.97376,
       18.55976
      ],
      [
       73.9738,
       18.55624
      ],
      [
       73.97355,
       18.5545
      ],
      [
       73.97253,
       18.55112
      ],
      [
       73.97084,
       18.548
      ],
      [
       73.96855,
       18.54525
      ],
      [
       73.96206,
       18.53987
      ],
      [
       73.95997,
       18.53839
      ],
      [
       73.95654,
       18.53672
      ],
      [
       73.95295,
       18.53576
      ],
      [
       73.94924,
       18.53549
      ],
      [
       73.93929,
       18.5357
      ],
      [
       73.93819,
       18.53577
      ],
      [
       73.92799,
       18.54014
      ]
     ]
    ]
   },
   "properties": {
    "name": "Kharadi",
    "population": 237256,
    "area_km2": 18.07,
    "label_point": [
     73.95189,
     18.55718
    ]
   }
  },
  {
   "type": "Feature",
   "geometry": {
    "type": "Polygon",
    "coordinates": [
     [
      [
       73.80076,
       18.63992
      ],
      [
       73.80279,
       18.64066
      ],
      [
       73.80643,
       18.64138
      ],
      [
       73.81015,
       18.6414
      ],
      [
       73.81302,
       18.64092
      ],
      [
       73.8144,
       18.60627
      ],
      [
       73.81224,
       18.6057
      ],
      [
       73.80854,
       18.60533
      ],
      [
       73.80484,
       18.60566
      ],
      [
       73.80128,
       18.60666
      ],
      [
       73.79959,
       18.60741
      ],
      [
       73.79649,
       18.60936
      ],
      [
       73.79385,
       18.61185
      ],
      [
       73.79252,
       18.61358
      ],
      [
       73.80076,
       18.63992
      ]
     ]
    ]
   },
   "properties": {
    "name": "Kharalwadi",
    "population": 30509,
    "area_km2": 6.99,
    "label_point": [
     73.80386,
     18.61617
    ]
   }
  },
  {
   "type": "Feature",
   "geometry": {
    "type": "Polygon",
    "coordinates": [
     [
      [
       73.87727,
       18.47892
      ],
      [
       73.87819,
       18.48125
      ],
      [
       73.87907,
       18.48199
      ],
      [
       73.88583,
       18.48163
      ],
      [
       73.92044,
       18.47245
      ],
      [
       73.91846,
       18.46901
      ],
      [
       73.88407,
       18.44916
      ],
      [
       73.87979,
       18.45513
      ],
      [
       73.87945,
       18.45637
      ],
      [
       73.87727,
       18.47892
      ]
     ]
    ]
   },
   "properties": {
    "name": "Kondhwa",
    "population": 309882,
    "area_km2": 9.39,
    "label_point": [
     73.8912,
     18.46752
    ]
   }
  },
  {
   "type": "Feature",
   "geometry": {
    "type": "Polygon",
    "coordinates": [
     [
      [
       73.918,
       18.53257
      ],
      [
       73.90423,
       18.51319
      ],
      [
       73.90334,
       18.51303
      ],
      [
       73.86797,
       18.54206
      ],
      [
       73.8681,
       18.54271
      ],
      [
       73.86947,
       18.54658
      ],
      [
       73.87139,
       18.54974
      ],
      [
       73.87393,
       18.55246
      ],
      [
       73.87579,
       18.55387
      ],
      [
       73.918,
       18.53257
      ]
     ]
    ]
   },
   "properties": {
    "name": "Koregaon Park",
    "population": 294441,
    "area_km2": 10.65,
    "label_point": [
     73.90148,
     18.52873
    ]
   }
  },
  {
   "type": "Feature",
   "geometry": {
    "type": "Polygon",
    "coordinates": [
     [
      [
       73.80286,
       18.52381
      ],
      [
       73.80665,
       18.5266
      ],
      [
       73.81305,
       18.52813
      ],
      [
       73.81877,
       18.52348
      ],
      [
       73.82755,
       18.50037
      ],
      [
       73.82276,
       18.49205
      ],
      [
       73.81165,
       18.48969
      ],
      [
       73.7966,
       18.50783
      ],
      [
       73.80286,
       18.52381
      ]
     ]
    ]
   },
   "properties": {
    "name": "Kothrud",
    "population": 53953,
    "area_km2": 8.88,
    "label_point": [
     73.81074,
     18.50991
    ]
   }
  },
  {
   "type": "Feature",
   "geometry": {
    "type": "Polygon",
    "coordinates": [
     [
      [
       73.89616,
       18.62403
      ],
      [
       73.89839,
       18.62655
      ],
      [
       73.91852,
       18.63052
      ],
      [
       73.92128,
       18.62927
      ],
      [
       73.92283,
       18.6283
      ],
      [
       73.92427,
       18.62719
      ],
      [
       73.92679,
       18.6246
      ],
      [
       73.92872,
       18.62159
      ],
      [
       73.92945,
       18.61996
      ],
      [
       73.93039,
       18.61655
      ],
      [
       73.9306,
       18.61479
      ],
      [
       73.92947,
       18.58313
      ],
      [
       73.90722,
       18.57992
      ],
      [
       73.89616,
       18.62403
      ]
     ]
    ]
   },
   "properties": {
    "name": "Lohegaon",
    "population": 64717,
    "area_km2": 15.6,
    "label_point": [
     73.91476,
     18.61441
    ]
   }
  },
  {
   "type": "Feature",
   "geometry": {
    "type": "Polygon",
    "coordinates": [
     [
      [
       73.918,
       18.53257
      ],
      [
       73.92799,
       18.54014
      ],
      [
       73.94878,
       18.53124
      ],
      [
       73.95006,
       18.52804
      ],
      [
       73.95046,
       18.52632
      ],
      [
       73.95072,
       18.5228
      ],
      [
       73.95012,
       18.51747
      ],
      [
       73.94904,
       18.51321
      ],
      [
       73.91358,
       18.50255
      ],
      [
       73.90696,
       18.5094
      ],
      [
       73.90777,
       18.51248
      ],
      [
       73.91206,
       18.52421
      ],
      [
       73.918,
       18.53257
      ]
     ]
    ]
   },
   "properties": {
    "name": "Magarpatta",
    "population": 386771,
    "area_km2": 12.5,
    "label_point": [
     73.93009,
     18.52295
    ]
   }
  },
  {
   "type": "Feature",
   "geometry": {
    "type": "Polygon",
    "coordinates": [
     [
      [
       73.74155,
       18.58379
      ],
      [
       73.74475,
       18.58218
      ],
      [
       73.74764,
       18.57995
      ],
      [
       73.75002,
       18.57722
      ],
      [
       73.75179,
       18.57411
      ],
      [
       73.7529,
       18.57073
      ],
      [
       73.75329,
       18.56721
      ],
      [
       73.75295,
       18.56368
      ],
      [
       73.75189,
       18.56028
      ],
      [
       73.75017,
       18.55714
      ],
      [
       73.74783,
       18.55439
      ],
      [
       73.74497,
       18.55212
      ],
      [
       73.74171,
       18.55043
      ],
      [
       73.73816,
       18.54938
      ],
      [
       73.73447,
       18.54901
      ],
      [
       73.73077,
       18.54933
      ],
      [
       73.72721,
       18.55033
      ],
      [
       73.72552,
       18.55108
      ],
      [
       73.72242,
       18.55303
      ],
      [
       73.71977,
       18.55552
      ],
      [
       73.71769,
       18.55845
      ],
      [
       73.71624,
       18.56171
      ],
      [
       73.71578,
       18.56343
      ],
      [
       73.71539,
       18.56695
      ],
      [
       73.71552,
       18.56906
      ],
      [
       73.74155,
       18.58379
      ]
     ]
    ]
   },
   "properties": {
    "name": "Mahalunge",
    "population": 6099,
    "area_km2": 10.77,
    "label_point": [
     73.73632,
     18.56402
    ]
   }
  },
  {
   "type": "Feature",
   "geometry": {
    "type": "Polygon",
    "coordinates": [
     [
      [
       73.84284,
       18.47933
      ],
      [
       73.84859,
       18.49617
      ],
      [
       73.86187,
       18.4979
      ],
      [
       73.87607,
       18.48342
      ],
      [
       73.87533,
       18.48127
      ],
      [
       73.87409,
       18.47893
      ],
      [
       73.84304,
       18.47904
      ],
      [
       73.84284,
       18.47933
      ]
     ]
    ]
   },
   "properties": {
    "name": "Maharshi Nagar",
    "population": 186053,
    "area_km2": 5.28,
    "label_point": [
     73.85818,
     18.48817
    ]
   }
  },
  {
   "type": "Feature",
   "geometry": {
    "type": "Polygon",
    "coordinates": [
     [
      [
       73.74127,
       18.60037
      ],
      [
       73.74045,
       18.5965
      ],
      [
       73.73914,
       18.59477
      ],
      [
       73.70807,
       18.59721
      ],
      [
       73.70638,
       18.60085
      ],
      [
       73.70563,
       18.60432
      ],
      [
       73.70553,
       18.60609
      ],
      [
       73.70587,
       18.60962
      ],
      [
       73.70692,
       18.61302
      ],
      [
       73.70865,
       18.61616
      ],
      [
       73.71098,
       18.61891
      ],
      [
       73.71384,
       18.62118
      ],
      [
       73.7171,
       18.62287
      ],
      [
       73.72065,
       18.62392
      ],
      [
       73.72435,
       18.62429
      ],
      [
       73.72805,
       18.62397
      ],
      [
       73.72989,
       18.62354
      ],
      [
       73.74127,
       18.60037
      ]
     ]
    ]
   },
   "properties": {
    "name": "Marunji",
    "population": 10041,
    "area_km2": 9.15,
    "label_point": [
     73.72115,
     18.60963
    ]
   }
  },
  {
   "type": "Feature",
   "geometry": {
    "type": "Polygon",
    "coordinates": [
     [
      [
       73.82659,
       18.64033
      ],
      [
       73.82546,
       18.64297
      ],
      [
       73.82471,
       18.64644
      ],
      [
       73.82469,
       18.64998
      ],
      [
       73.82539,
       18.65346
      ],
      [
       73.82679,
       18.65674
      ],
      [
       73.82883,
       18.6597
      ],
      [
       73.83144,
       18.66222
      ],
      [
       73.83452,
       18.66421
      ],
      [
       73.83794,
       18.66559
      ],
      [
       73.84159,
       18.6663
      ],
      [
       73.8453,
       18.66633
      ],
      [
       73.84895,
       18.66566
      ],
      [
       73.8524,
       18.66432
      ],
      [
       73.8555,
       18.66237
      ],
      [
       73.85814,
       18.65988
      ],
      [
       73.86023,
       18.65695
      ],
      [
       73.86167,
       18.65369
      ],
      [
       73.86242,
       18.65021
      ],
      [
       73.86245,
       18.64667
      ],
      [
       73.86174,
       18.64319
      ],
      [
       73.86034,
       18.63991
      ],
      [
       73.8583,
       18.63695
      ],
      [
       73.85569,
       18.63443
      ],
      [
       73.85261,
       18.63244
      ],
      [
       73.84919,
       18.63107
      ],
      [
       73.84555,
       18.63035
      ],
      [
       73.84183,
       18.63033
      ],
      [
       73.83818,
       18.631
      ],
      [
       73.83598,
       18.63178
      ],
      [
       73.82659,
       18.64033
      ]
     ]
    ]
   },
   "properties": {
    "name": "Moshi",
    "population": 68416,
    "area_km2": 12.43,
    "label_point": [
     73.84397,
     18.64872
    ]
   }
  },
  {
   "type": "Feature",
   "geometry": {
    "type": "Polygon",
    "coordinates": [
     [
      [
       73.80494,
       18.47332
      ],
      [
       73.81698,
       18.45869
      ],
      [
       73.81625,
       18.4447
      ],
      [
       73.81291,
       18.44192
      ],
      [
       73.81133,
       18.441
      ],
      [
       73.80791,
       18.43962
      ],
      [
       73.80427,
       18.43891
      ],
      [
       73.80056,
       18.43889
      ],
      [
       73.79872,
       18.43913
      ],
      [
       73.79516,
       18.44014
      ],
      [
       73.79187,
       18.44179
      ],
      [
       73.78899,
       18.44402
      ],
      [
       73.78661,
       18.44674
      ],
      [
       73.78484,
       18.44986
      ],
      [
       73.78374,
       18.45324
      ],
      [
       73.78335,
       18.45676
      ],
      [
       73.78369,
       18.46029
      ],
      [
       73.78413,
       18.46201
      ],
      [
       73.78553,
       18.4653
      ],
      [
       73.78757,
       18.46826
      ],
      [
       73.7893,
       18.47001
      ],
      [
       73.80494,
       18.47332
      ]
     ]
    ]
   },
   "properties": {
    "name": "Nanded",
    "population": 59206,
    "area_km2": 10.45,
    "label_point": [
     73.80008,
     18.4548
    ]
   }
  },
  {
   "type": "Feature",
   "geometry": {
    "type": "Polygon",
    "coordinates": [
     [
      [
       73.85018,
       18.52589
      ],
      [
       73.85704,
       18.53159
      ],
      [
       73.86055,
       18.52982
      ],
      [
       73.8636,
       18.52734
      ],
      [
       73.86404,
       18.51698
      ],
      [
       73.8532,
       18.51082
      ],
      [
       73.84477,
       18.51436
      ],
      [
       73.85018,
       18.52589
      ]
     ]
    ]
   },
   "properties": {
    "name": "Narayan Peth",
    "population": 133551,
    "area_km2": 2.97,
    "label_point": [
     73.85624,
     18.52105
    ]
   }
  },
  {
   "type": "Feature",
   "geometry": {
    "type": "Polygon",
    "coordinates": [
     [
      [
       73.76299,
       18.63098
      ],
      [
       73.75372,
       18.63602
      ],
      [
       73.75619,
       18.67323
      ],
      [
       73.75817,
       18.67501
      ],
      [
       73.7597,
       18.67607
      ],
      [
       73.76133,
       18.67698
      ],
      [
       73.76483,
       18.67831
      ],
      [
       73.76667,
       18.67872
      ],
      [
       73.77042,
       18.67901
      ],
      [
       73.77417,
       18.67858
      ],
      [
       73.77775,
       18.67746
      ],
      [
       73.78102,
       18.67568
      ],
      [
       73.78251,
       18.67457
      ],
      [
       73.78509,
       18.67196
      ],
      [
       73.78708,
       18.66891
      ],
      [
       73.7884,
       18.66554
      ],
      [
       73.78991,
       18.65969
      ],
      [
       73.79029,
       18.65466
      ],
      [
       73.7903,
       18.65281
      ],
      [
       73.78996,
       18.65031
      ],
      [
       73.76299,
       18.63098
      ]
     ]
    ]
   },
   "properties": {
    "name": "Nigdi",
    "population": 84505,
    "area_km2": 14.98,
    "label_point": [
     73.7725,
     18.65859
    ]
   }
  },
  {
   "type": "Feature",
   "geometry": {
    "type": "Polygon",
    "coordinates": [
     [
      [
       73.7933,
       18.55452
      ],
      [
       73.8058,
       18.54064
      ],
      [
       73.80517,
       18.53763
      ],
      [
       73.80377,
       18.53435
      ],
      [
       73.80172,
       18.53139
      ],
      [
       73.79912,
       18.52887
      ],
      [
       73.79763,
       18.5278
      ],
      [
       73.79508,
       18.52644
      ],
      [
       73.76996,
       18.53491
      ],
      [
       73.76891,
       18.5374
      ],
      [
       73.76816,
       18.54087
      ],
      [
       73.76805,
       18.54264
      ],
      [
       73.76837,
       18.54602
      ],
      [
       73.7933,
       18.55452
      ]
     ]
    ]
   },
   "properties": {
    "name": "Pashan",
    "population": 28448,
    "area_km2": 8.05,
    "label_point": [
     73.78947,
     18.54076
    ]
   }
  },
  {
   "type": "Feature",
   "geometry": {
    "type": "Polygon",
    "coordinates": [
     [
      [
       73.93843,
       18.47267
      ],
      [
       73.93813,
       18.47488
      ],
      [
       73.93826,
       18.47842
      ],
      [
       73.9386,
       18.48016
      ],
      [
       73.93974,
       18.48338
      ],
      [
       73.95164,
       18.49331
      ],
      [
       73.95401,
       18.49385
      ],
      [
       73.95771,
       18.49407
      ],
      [
       73.96139,
       18.49359
      ],
      [
       73.9649,
       18.49244
      ],
      [
       73.96811,
       18.49066
      ],
      [
       73.9709,
       18.48832
      ],
      [
       73.97352,
       18.48512
      ],
      [
       73.97515,
       18.48194
      ],
      [
       73.9761,
       18.47851
      ],
      [
       73.97633,
       18.47497
      ],
      [
       73.97583,
       18.47146
      ],
      [
       73.97463,
       18.46811
      ],
      [
       73.97276,
       18.46505
      ],
      [
       73.97031,
       18.46239
      ],
      [
       73.96735,
       18.46025
      ],
      [
       73.96402,
       18.45869
      ],
      [
       73.96043,
       18.45778
      ],
      [
       73.95672,
       18.45756
      ],
      [
       73.95487,
       18.45771
      ],
      [
       73.95208,
       18.4583
      ],
      [
       73.93843,
       18.47267
      ]
     ]
    ]
   },
   "properties": {
    "name": "Phursungi",
    "population": 63149,
    "area_km2": 12.14,
    "label_point": [
     73.95848,
     18.47646
    ]
   }
  },
  {
   "type": "Feature",
   "geometry": {
    "type": "Polygon",
    "coordinates": [
     [
      [
       73.8128,
       18.64638
      ],
      [
       73.81478,
       18.647
      ],
      [
       73.81865,
       18.64755
      ],
      [
       73.83932,
       18.62875
      ],
      [
       73.83964,
       18.62654
      ],
      [
       73.83954,
       18.62314
      ],
      [
       73.83877,
       18.61981
      ],
      [
       73.83496,
       18.60849
      ],
      [
       73.8335,
       18.60525
      ],
      [
       73.83252,
       18.60375
      ],
      [
       73.8314,
       18.60235
      ],
      [
       73.82875,
       18.5999
      ],
      [
       73.82566,
       18.59797
      ],
      [
       73.82223,
       18.59666
      ],
      [
       73.8186,
       18.59601
      ],
      [
       73.81481,
       18.59605
      ],
      [
       73.8128,
       18.64638
      ]
     ]
    ]
   },
   "properties": {
    "name": "Pimpri",
    "population": 57335,
    "area_km2": 11.43,
    "label_point": [
     73.82658,
     18.62346
    ]
   }
  },
  {
   "type": "Feature",
   "geometry": {
    "type": "Polygon",
    "coordinates": [
     [
      [
       73.7539,
       18.63872
      ],
      [
       73.7459,
       18.63487
      ],
      [
       73.73686,
       18.63354
      ],
      [
       73.73444,
       18.63388
      ],
      [
       73.73091,
       18.63499
      ],
      [
       73.72767,
       18.63673
      ],
      [
       73.7262,
       18.63782
      ],
      [
       73.72364,
       18.64039
      ],
      [
       73.72165,
       18.64338
      ],
      [
       73.72031,
       18.64668
      ],
      [
       73.71967,
       18.65017
      ],
      [
       73.71975,
       18.65371
      ],
      [
       73.72056,
       18.65717
      ],
      [
       73.72207,
       18.66041
      ],
      [
       73.7242,
       18.66331
      ],
      [
       73.72689,
       18.66576
      ],
      [
       73.73003,
       18.66765
      ],
      [
       73.7374,
       18.6711
      ],
      [
       73.74098,
       18.67205
      ],
      [
       73.74469,
       18.67231
      ],
      [
       73.74838,
       18.67188
      ],
      [
       73.75191,
       18.67078
      ],
      [
       73.75357,
       18.66998
      ],
      [
       73.75588,
       18.66849
      ],
      [
       73.7539,
       18.63872
      ]
     ]
    ]
   },
   "properties": {
    "name": "Ravet",
    "population": 43406,
    "area_km2": 13.16,
    "label_point": [
     73.73721,
     18.65188
    ]
   }
  },
  {
   "type": "Feature",
   "geometry": {
    "type": "Polygon",
    "coordinates": [
     [
      [
       73.84069,
       18.50365
      ],
      [
       73.84007,
       18.51073
      ],
      [
       73.84477,
       18.51436
      ],
      [
       73.8532,
       18.51082
      ],
      [
       73.8461,
       18.49992
      ],
      [
       73.84069,
       18.50365
      ]
     ]
    ]
   },
   "properties": {
    "name": "Sadashiv Peth",
    "population": 49085,
    "area_km2": 1.32,
    "label_point": [
     73.84552,
     18.50855
    ]
   }
  },
  {
   "type": "Feature",
   "geometry": {
    "type": "Polygon",
    "coordinates": [
     [
      [
       73.81101,
       18.52979
      ],
      [
       73.81224,
       18.53349
      ],
      [
       73.83258,
       18.55234
      ],
      [
       73.84749,
       18.54914
      ],
      [
       73.8493,
       18.54865
      ],
      [
       73.85273,
       18.54718
      ],
      [
       73.85579,
       18.54508
      ],
      [
       73.85835,
       18.54245
      ],
      [
       73.86031,
       18.53939
      ],
      [
       73.86172,
       18.53548
      ],
      [
       73.85018,
       18.52589
      ],
      [
       73.83046,
       18.51978
      ],
      [
       73.81877,
       18.52348
      ],
      [
       73.81101,
       18.52979
      ]
     ]
    ]
   },
   "properties": {
    "name": "Shivajinagar",
    "population": 230533,
    "area_km2": 12.21,
    "label_point": [
     73.83718,
     18.5368
    ]
   }
  },
  {
   "type": "Feature",
   "geometry": {
    "type": "Polygon",
    "coordinates": [
     [
      [
       73.8461,
       18.49992
      ],
      [
       73.8532,
       18.51082
      ],
      [
       73.86404,
       18.51698
      ],
      [
       73.86641,
       18.51168
      ],
      [
       73.86187,
       18.4979
      ],
      [
       73.84859,
       18.49617
      ],
      [
       73.8461,
       18.49992
      ]
     ]
    ]
   },
   "properties": {
    "name": "Shukrawar Peth",
    "population": 124251,
    "area_km2": 2.87,
    "label_point": [
     73.85665,
     18.50378
    ]
   }
  },
  {
   "type": "Feature",
   "geometry": {
    "type": "Polygon",
    "coordinates": [
     [
      [
       73.7299,
       18.62353
      ],
      [
       73.73147,
       18.62634
      ],
      [
       73.73381,
       18.62909
      ],
      [
       73.73518,
       18.63029
      ],
      [
       73.73825,
       18.63228
      ],
      [
       73.74168,
       18.63366
      ],
      [
       73.74532,
       18.63438
      ],
      [
       73.74903,
       18.6344
      ],
      [
       73.75088,
       18.63415
      ],
      [
       73.75268,
       18.63373
      ],
      [
       73.75613,
       18.6324
      ],
      [
       73.75923,
       18.63045
      ],
      [
       73.76188,
       18.62797
      ],
      [
       73.76396,
       18.62503
      ],
      [
       73.76541,
       18.62177
      ],
      [
       73.76616,
       18.6183
      ],
      [
       73.76625,
       18.61628
      ],
      [
       73.74127,
       18.60037
      ],
      [
       73.7299,
       18.62353
      ]
     ]
    ]
   },
   "properties": {
    "name": "Tathawade",
    "population": 15710,
    "area_km2": 9.14,
    "label_point": [
     73.74726,
     18.62072
    ]
   }
  },
  {
   "type": "Feature",
   "geometry": {
    "type": "Polygon",
    "coordinates": [
     [
      [
       73.91667,
       18.46797
      ],
      [
       73.91887,
       18.4676
      ],
      [
       73.9277,
       18.43713
      ],
      [
       73.92444,
       18.43467
      ],
      [
       73.92282,
       18.43381
      ],
      [
       73.91934,
       18.43257
      ],
      [
       73.91312,
       18.4316
      ],
      [
       73.90941,
       18.43172
      ],
      [
       73.90758,
       18.43204
      ],
      [
       73.90407,
       18.43318
      ],
      [
       73.90086,
       18.43496
      ],
      [
       73.89807,
       18.43729
      ],
      [
       73.89581,
       18.44011
      ],
      [
       73.89418,
       18.44329
      ],
      [
       73.89322,
       18.44671
      ],
      [
       73.89298,
       18.45025
      ],
      [
       73.89347,
       18.45376
      ],
      [
       73.89377,
       18.45476
      ],
      [
       73.91667,
       18.46797
      ]
     ]
    ]
   },
   "properties": {
    "name": "Undri",
    "population": 100603,
    "area_km2": 10.08,
    "label_point": [
     73.90924,
     18.44694
    ]
   }
  },
  {
   "type": "Feature",
   "geometry": {
    "type": "Polygon",
    "coordinates": [
     [
      [
       73.83946,
       18.48027
      ],
      [
       73.84284,
       18.47933
      ],
      [
       73.84304,
       18.47904
      ],
      [
       73.8431,
       18.47151
      ],
      [
       73.84096,
       18.46464
      ],
      [
       73.82165,
       18.46105
      ],
      [
       73.82691,
       18.47465
      ],
      [
       73.83946,
       18.48027
      ]
     ]
    ]
   },
   "properties": {
    "name": "Vadgaon Budruk",
    "population": 13772,
    "area_km2": 3.04,
    "label_point": [
     73.83516,
     18.47065
    ]
   }
  },
  {
   "type": "Feature",
   "geometry": {
    "type": "Polygon",
    "coordinates": [
     [
      [
       73.88879,
       18.56817
      ],
      [
       73.88882,
       18.56953
      ],
      [
       73.90722,
       18.57992
      ],
      [
       73.92643,
       18.58269
      ],
      [
       73.92962,
       18.58092
      ],
      [
       73.93246,
       18.57852
      ],
      [
       73.93474,
       18.57563
      ],
      [
       73.93574,
       18.57381
      ],
      [
       73.92747,
       18.5469
      ],
      [
       73.92572,
       18.54596
      ],
      [
       73.88879,
       18.56817
      ]
     ]
    ]
   },
   "properties": {
    "name": "Viman Nagar",
    "population": 266098,
    "area_km2": 11.56,
    "label_point": [
     73.91825,
     18.56717
    ]
   }
  },
  {
   "type": "Feature",
   "geometry": {
    "type": "Polygon",
    "coordinates": [
     [
      [
       73.74127,
       18.60037
      ],
      [
       73.76835,
       18.61762
      ],
      [
       73.77921,
       18.60906
      ],
      [
       73.78177,
       18.6065
      ],
      [
       73.78284,
       18.60506
      ],
      [
       73.78376,
       18.60353
      ],
      [
       73.7851,
       18.60024
      ],
      [
       73.78574,
       18.59676
      ],
      [
       73.78574,
       18.59417
      ],
      [
       73.75443,
       18.57881
      ],
      [
       73.75202,
       18.58024
      ],
      [
       73.75053,
       18.58142
      ],
      [
       73.7427,
       18.58837
      ],
      [
       73.74006,
       18.5947
      ],
      [
       73.74127,
       18.60037
      ]
     ]
    ]
   },
   "properties": {
    "name": "Wakad",
    "population": 35445,
    "area_km2": 12.38,
    "label_point": [
     73.76749,
     18.6006
    ]
   }
  },
  {
   "type": "Feature",
   "geometry": {
    "type": "Polygon",
    "coordinates": [
     [
      [
       73.91827,
       18.4905
      ],
      [
       73.92384,
       18.48129
      ],
      [
       73.92351,
       18.47791
      ],
      [
       73.92254,
       18.47472
      ],
      [
       73.92044,
       18.47245
      ],
      [
       73.88583,
       18.48163
      ],
      [
       73.91827,
       18.4905
      ]
     ]
    ]
   },
   "properties": {
    "name": "Wanowrie",
    "population": 108200,
    "area_km2": 4.08,
    "label_point": [
     73.91452,
     18.48177
    ]
   }
  },
  {
   "type": "Feature",
   "geometry": {
    "type": "Polygon",
    "coordinates": [
     [
      [
       73.89005,
       18.50305
      ],
      [
       73.89413,
       18.50588
      ],
      [
       73.89711,
       18.50644
      ],
      [
       73.90083,
       18.50646
      ],
      [
       73.90267,
       18.50621
      ],
      [
       73.90447,
       18.50579
      ],
      [
       73.90791,
       18.50445
      ],
      [
       73.91101,
       18.5025
      ],
      [
       73.91366,
       18.50001
      ],
      [
       73.91477,
       18.49859
      ],
      [
       73.91566,
       18.49719
      ],
      [
       73.91763,
       18.49215
      ],
      [
       73.91792,
       18.4904
      ],
      [
       73.88583,
       18.48163
      ],
      [
       73.88147,
       18.48186
      ],
      [
       73.88054,
       18.48481
      ],
      [
       73.89005,
       18.50305
      ]
     ]
    ]
   },
   "properties": {
    "name": "Wanwadi",
    "population": 171449,
    "area_km2": 6.85,
    "label_point": [
     73.8987,
     18.49604
    ]
   }
  },
  {
   "type": "Feature",
   "geometry": {
    "type": "Polygon",
    "coordinates": [
     [
      [
       73.78984,
       18.50446
      ],
      [
       73.79327,
       18.50512
      ],
      [
       73.79512,
       18.50522
      ],
      [
       73.79908,
       18.50484
      ],
      [
       73.81165,
       18.48969
      ],
      [
       73.80818,
       18.47854
      ],
      [
       73.80494,
       18.47332
      ],
      [
       73.7893,
       18.47001
      ],
      [
       73.78643,
       18.47115
      ],
      [
       73.78333,
       18.4731
      ],
      [
       73.78069,
       18.47559
      ],
      [
       73.77957,
       18.47701
      ],
      [
       73.77861,
       18.47852
      ],
      [
       73.77716,
       18.48179
      ],
      [
       73.7767,
       18.4835
      ],
      [
       73.77631,
       18.48703
      ],
      [
       73.77665,
       18.49055
      ],
      [
       73.77709,
       18.49228
      ],
      [
       73.77849,
       18.49556
      ],
      [
       73.78053,
       18.49852
      ],
      [
       73.78348,
       18.50129
      ],
      [
       73.78984,
       18.50446
      ]
     ]
    ]
   },
   "properties": {
    "name": "Warje",
    "population": 49894,
    "area_km2": 10.69,
    "label_point": [
     73.79287,
     18.4869
    ]
   }
  }
 ]
}
